[{"OBJECT_NAME":"CUTE-1.7+APD II (CO-65)","OBJECT_ID":"2008-021C","EPOCH":"2026-03-09T21:54:04.726080","MEAN_MOTION":15.08376872,"ECCENTRICITY":0.00096053,"INCLINATION":97.8207,"RA_OF_ASC_NODE":48.3884,"ARG_OF_PERICENTER":18.7003,"MEAN_ANOMALY":341.4575,"EPHEMERIS_TYPE":0,"CLASSIFICATION_TYPE":"U","NORAD_CAT_ID":32785,"ELEMENT_SET_NO":999,"REV_AT_EPOCH":97022,"BSTAR":0.00047295391,"MEAN_MOTION_DOT":7.295e-5,"MEAN_MOTION_DDOT":0},{"OBJECT_NAME":"STARLINK-2433","OBJECT_ID":"2021-018BG","EPOCH":"2026-03-09T16:09:20.484864","MEAN_MOTION":15.06389668,"ECCENTRICITY":0.00013526,"INCLINATION":53.0555,"RA_OF_ASC_NODE":231.6908,"ARG_OF_PERICENTER":104.5214,"MEAN_ANOMALY":255.5925,"EPHEMERIS_TYPE":0,"CLASSIFICATION_TYPE":"U","NORAD_CAT_ID":47841,"ELEMENT_SET_NO":999,"REV_AT_EPOCH":27687,"BSTAR":0.00014374564,"MEAN_MOTION_DOT":1.86e-5,"MEAN_MOTION_DDOT":0}]
